[
    {
        "Altitude(m)": 607895.795339192,
        "Argument of Periapsis(deg)": 0.0,
        "Eccentricity": 0.0,
        "Inclination(deg)": 60.0,
        "Latitude(deg)": 40.99827987839126,
        "Longitude(deg)": -134.9112791961588,
        "Mean Anomaly(deg)": 130.9091,
        "RAAN(deg)": 175.0,
        "Satellite Name": "Test1 778",
        "Satellite Number": 778,
        "Semi-Major Axis(m)": 6980739.136638005,
        "Time(s)": 0
    },
    {
        "Altitude(m)": 607795.1079594265,
        "Argument of Periapsis(deg)": 0.00010418945913296404,
        "Eccentricity": 0.0,
        "Inclination(deg)": 60.0,
        "Latitude(deg)": 40.53060337823014,
        "Longitude(deg)": -134.41468703467598,
        "Mean Anomaly(deg)": 131.5292061454618,
        "RAAN(deg)": 174.99957995086024,
        "Satellite Name": "Test1 778",
        "Satellite Number": 778,
        "Semi-Major Axis(m)": 6980739.136638005,
        "Time(s)": 10
    },
    {
        "Altitude(m)": 607694.5961430803,
        "Argument of Periapsis(deg)": 0.0002083789182659281,
        "Eccentricity": 0.0,
        "Inclination(deg)": 60.0,
        "Latitude(deg)": 40.06041694267269,
        "Longitude(deg)": -133.92553571534188,
        "Mean Anomaly(deg)": 132.14931229092363,
        "RAAN(deg)": 174.9991599017205,
        "Satellite Name": "Test1 778",
        "Satellite Number": 778,
        "Semi-Major Axis(m)": 6980739.136638005,
        "Time(s)": 20
    },
    {
        "Altitude(m)": 607594.3235889784,
        "Argument of Periapsis(deg)": 0.00031256837739889213,
        "Eccentricity": 0.0,
        "Inclination(deg)": 60.0,
        "Latitude(deg)": 39.587794145025406,
        "Longitude(deg)": -133.44363963261773,
        "Mean Anomaly(deg)": 132.7694184363855,
        "RAAN(deg)": 174.99873985258077,
        "Satellite Name": "Test1 778",
        "Satellite Number": 778,
        "Semi-Major Axis(m)": 6980739.136638005,
        "Time(s)": 30
    },
    {
        "Altitude(m)": 607494.3540962874,
        "Argument of Periapsis(deg)": 0.0004167578365318562,
        "Eccentricity": 0.0,
        "Inclination(deg)": 60.0,
        "Latitude(deg)": 39.1128063184448,
        "Longitude(deg)": -132.96881622090777,
        "Mean Anomaly(deg)": 133.38952458184733,
        "RAAN(deg)": 174.99831980344103,
        "Satellite Name": "Test1 778",
        "Satellite Number": 778,
        "Semi-Major Axis(m)": 6980739.136638005,
        "Time(s)": 40
    },
    {
        "Altitude(m)": 607394.7515326273,
        "Argument of Periapsis(deg)": 0.0005209472956648203,
        "Eccentricity": 0.0,
        "Inclination(deg)": 60.0,
        "Latitude(deg)": 38.63552262929888,
        "Longitude(deg)": -132.50088697500195,
        "Mean Anomaly(deg)": 134.00963072730917,
        "RAAN(deg)": 174.99789975430127,
        "Satellite Name": "Test1 778",
        "Satellite Number": 778,
        "Semi-Major Axis(m)": 6980739.136638005,
        "Time(s)": 50
    },
    {
        "Altitude(m)": 607295.5798020653,
        "Argument of Periapsis(deg)": 0.0006251367547977843,
        "Eccentricity": 0.0,
        "Inclination(deg)": 60.0,
        "Latitude(deg)": 38.15601014898729,
        "Longitude(deg)": -132.03967694682916,
        "Mean Anomaly(deg)": 134.629736872771,
        "RAAN(deg)": 174.99747970516154,
        "Satellite Name": "Test1 778",
        "Satellite Number": 778,
        "Semi-Major Axis(m)": 6980739.136638005,
        "Time(s)": 60
    },
    {
        "Altitude(m)": 607196.9028130573,
        "Argument of Periapsis(deg)": 0.0007293262139307483,
        "Eccentricity": 0.0,
        "Inclination(deg)": 60.0,
        "Latitude(deg)": 37.67433392415315,
        "Longitude(deg)": -131.58501423252628,
        "Mean Anomaly(deg)": 135.24984301823287,
        "RAAN(deg)": 174.9970596560218,
        "Satellite Name": "Test1 778",
        "Satellite Number": 778,
        "Semi-Major Axis(m)": 6980739.136638005,
        "Time(s)": 70
    },
    {
        "Altitude(m)": 607098.7844463203,
        "Argument of Periapsis(deg)": 0.0008335156730637124,
        "Eccentricity": 0.0,
        "Inclination(deg)": 60.0,
        "Latitude(deg)": 37.19055704523694,
        "Longitude(deg)": -131.1367309637404,
        "Mean Anomaly(deg)": 135.86994916369468,
        "RAAN(deg)": 174.99663960688207,
        "Satellite Name": "Test1 778",
        "Satellite Number": 778,
        "Semi-Major Axis(m)": 6980739.136638005,
        "Time(s)": 80
    },
    {
        "Altitude(m)": 607001.2885226825,
        "Argument of Periapsis(deg)": 0.0009377051321966765,
        "Eccentricity": 0.0,
        "Inclination(deg)": 60.0,
        "Latitude(deg)": 36.704740713327844,
        "Longitude(deg)": -130.69466277838225,
        "Mean Anomaly(deg)": 136.49005530915647,
        "RAAN(deg)": 174.9962195577423,
        "Satellite Name": "Test1 778",
        "Satellite Number": 778,
        "Semi-Major Axis(m)": 6980739.136638005,
        "Time(s)": 90
    },
    {
        "Altitude(m)": 606904.4787708956,
        "Argument of Periapsis(deg)": 0.0010418945913296407,
        "Eccentricity": 0.0,
        "Inclination(deg)": 60.0,
        "Latitude(deg)": 36.21694430528742,
        "Longitude(deg)": -130.25864828458418,
        "Mean Anomaly(deg)": 137.11016145461832,
        "RAAN(deg)": 174.9957995086026,
        "Satellite Name": "Test1 778",
        "Satellite Number": 778,
        "Semi-Major Axis(m)": 6980739.136638005,
        "Time(s)": 100
    },
    {
        "Altitude(m)": 606808.4187954332,
        "Argument of Periapsis(deg)": 0.0011460840504626045,
        "Eccentricity": 0.0,
        "Inclination(deg)": 60.0,
        "Latitude(deg)": 35.72722543713048,
        "Longitude(deg)": -129.8285300315462,
        "Mean Anomaly(deg)": 137.7302676000801,
        "RAAN(deg)": 174.99537945946284,
        "Satellite Name": "Test1 778",
        "Satellite Number": 778,
        "Semi-Major Axis(m)": 6980739.136638005,
        "Time(s)": 110
    },
    {
        "Altitude(m)": 606713.1720443162,
        "Argument of Periapsis(deg)": 0.0012502735095955685,
        "Eccentricity": 0.0,
        "Inclination(deg)": 60.0,
        "Latitude(deg)": 35.23564002564992,
        "Longitude(deg)": -129.40415396226308,
        "Mean Anomaly(deg)": 138.35037374554193,
        "RAAN(deg)": 174.9949594103231,
        "Satellite Name": "Test1 778",
        "Satellite Number": 778,
        "Semi-Major Axis(m)": 6980739.136638005,
        "Time(s)": 120
    },
    {
        "Altitude(m)": 606618.8017769293,
        "Argument of Periapsis(deg)": 0.0013544629687285324,
        "Eccentricity": 0.0,
        "Inclination(deg)": 60.0,
        "Latitude(deg)": 34.742242348289295,
        "Longitude(deg)": -128.98536886168372,
        "Mean Anomaly(deg)": 138.97047989100378,
        "RAAN(deg)": 174.99453936118334,
        "Satellite Name": "Test1 778",
        "Satellite Number": 778,
        "Semi-Major Axis(m)": 6980739.136638005,
        "Time(s)": 130
    },
    {
        "Altitude(m)": 606525.3710319108,
        "Argument of Periapsis(deg)": 0.0014586524278614966,
        "Eccentricity": 0.0,
        "Inclination(deg)": 60.0,
        "Latitude(deg)": 34.247085101270244,
        "Longitude(deg)": -128.57202731378783,
        "Mean Anomaly(deg)": 139.5905860364656,
        "RAAN(deg)": 174.99411931204364,
        "Satellite Name": "Test1 778",
        "Satellite Number": 778,
        "Semi-Major Axis(m)": 6980739.136638005,
        "Time(s)": 140
    },
    {
        "Altitude(m)": 606432.9425950611,
        "Argument of Periapsis(deg)": 0.0015628418869944607,
        "Eccentricity": 0.0,
        "Inclination(deg)": 60.0,
        "Latitude(deg)": 33.750219455985174,
        "Longitude(deg)": -128.1639851423984,
        "Mean Anomaly(deg)": 140.21069218192747,
        "RAAN(deg)": 174.99369926290387,
        "Satellite Name": "Test1 778",
        "Satellite Number": 778,
        "Semi-Major Axis(m)": 6980739.136638005,
        "Time(s)": 150
    },
    {
        "Altitude(m)": 606341.5789673538,
        "Argument of Periapsis(deg)": 0.0016670313461274247,
        "Eccentricity": 0.0,
        "Inclination(deg)": 60.0,
        "Latitude(deg)": 33.251695113675034,
        "Longitude(deg)": -127.76110084911024,
        "Mean Anomaly(deg)": 140.8307983273893,
        "RAAN(deg)": 174.99327921376414,
        "Satellite Name": "Test1 778",
        "Satellite Number": 778,
        "Semi-Major Axis(m)": 6980739.136638005,
        "Time(s)": 160
    },
    {
        "Altitude(m)": 606251.3423330018,
        "Argument of Periapsis(deg)": 0.0017712208052603888,
        "Eccentricity": 0.0,
        "Inclination(deg)": 60.0,
        "Latitude(deg)": 32.75156035841695,
        "Longitude(deg)": -127.36323656166768,
        "Mean Anomaly(deg)": 141.45090447285114,
        "RAAN(deg)": 174.99285916462438,
        "Satellite Name": "Test1 778",
        "Satellite Number": 778,
        "Semi-Major Axis(m)": 6980739.136638005,
        "Time(s)": 170
    },
    {
        "Altitude(m)": 606162.2945276479,
        "Argument of Periapsis(deg)": 0.001875410264393353,
        "Eccentricity": 0.0,
        "Inclination(deg)": 60.0,
        "Latitude(deg)": 32.249862108444916,
        "Longitude(deg)": -126.97025746746519,
        "Mean Anomaly(deg)": 142.07101061831298,
        "RAAN(deg)": 174.99243911548467,
        "Satellite Name": "Test1 778",
        "Satellite Number": 778,
        "Semi-Major Axis(m)": 6980739.136638005,
        "Time(s)": 180
    },
    {
        "Altitude(m)": 606074.4970066479,
        "Argument of Periapsis(deg)": 0.0019795997235263173,
        "Eccentricity": 0.0,
        "Inclination(deg)": 60.0,
        "Latitude(deg)": 31.746645965835274,
        "Longitude(deg)": -126.58203124541895,
        "Mean Anomaly(deg)": 142.69111676377477,
        "RAAN(deg)": 174.99201906634488,
        "Satellite Name": "Test1 778",
        "Satellite Number": 778,
        "Semi-Major Axis(m)": 6980739.136638005,
        "Time(s)": 190
    }
]